[{"OBJECT_NAME":"STARLINK-4575","OBJECT_ID":"2022-101AQ","EPOCH":"2026-03-09T23:00:57.805632","MEAN_MOTION":15.08839588,"ECCENTRICITY":0.0001454,"INCLINATION":53.2177,"RA_OF_ASC_NODE":53.0625,"ARG_OF_PERICENTER":89.6964,"MEAN_ANOMALY":270.4195,"EPHEMERIS_TYPE":0,"CLASSIFICATION_TYPE":"U","NORAD_CAT_ID":53565,"ELEMENT_SET_NO":999,"REV_AT_EPOCH":19714,"BSTAR":1.793194e-6,"MEAN_MOTION_DOT":-2.59e-6,"MEAN_MOTION_DDOT":0},{"OBJECT_NAME":"PSLV DEB","OBJECT_ID":"2001-049CY","EPOCH":"2026-03-09T18:20:37.296384","MEAN_MOTION":15.08389698,"ECCENTRICITY":0.00190632,"INCLINATION":97.9861,"RA_OF_ASC_NODE":156.2845,"ARG_OF_PERICENTER":340.3269,"MEAN_ANOMALY":19.722,"EPHEMERIS_TYPE":0,"CLASSIFICATION_TYPE":"U","NORAD_CAT_ID":27152,"ELEMENT_SET_NO":999,"REV_AT_EPOCH":30598,"BSTAR":0.00053695108,"MEAN_MOTION_DOT":8.318e-5,"MEAN_MOTION_DDOT":0}]
